{"_default": { "268": {"norad_id": "52761", "name": "ION SCV-006", "tle1": "1 52761U 22057AF  26162.14258643  .00011114  00000-0  23515-3 0  9994", "tle2": "2 52761  97.6086 310.4761 0018260 134.1240 226.1514 15.45139104225185", "object_type": "PAYLOAD", "criticality_score": 7.0, "last_updated": "2026-06-11T13:56:27.956741+00:00", "maneuver_count": 0}, "275": {"norad_id": "52763", "name": "SHERPA-AC1", "tle1": "1 52763U 22057AH  26162.13947807  .00006321  00000-0  18157-3 0  9992", "tle2": "2 52763  97.6673 311.1149 0008925 111.6751 248.5443 15.36180374224779", "object_type": "PAYLOAD", "criticality_score": 7.0, "last_updated": "2026-06-11T13:56:27.956741+00:00", "maneuver_count": 0}, "279": {"norad_id": "52771", "name": "OMNI-L2", "tle1": "1 52771U 22057AR  26162.17840215  .00001143  00000-0  15242-3 0  9999", "tle2": "2 52771  97.4717 224.9405 0006317 358.3758   1.7434 14.81354549219501", "object_type": "PAYLOAD", "criticality_score": 7.0, "last_updated": "2026-06-11T13:56:27.956741+00:00", "maneuver_count": 0}, "280": {"norad_id": "52422", "name": "BRO-6", "tle1": "1 52422U 22047AE  26162.19973300  .00030571  00000-0  54289-3 0  9996", "tle2": "2 52422  97.3398 253.1417 0005511  98.4346 261.7531 15.50140832230228", "object_type": "PAYLOAD", "criticality_score": 7.0, "last_updated": "2026-06-11T13:56:27.956741+00:00", "maneuver_count": 0}, "296": {"norad_id": "52897", "name": "STEP CUBE LAB-II", "tle1": "1 52897U 22065D   26162.25529985  .00000638  00000-0  13304-3 0  9999", "tle2": "2 52897  98.2218 306.1756 0009646  49.3705 310.8335 14.63293993210638", "object_type": "PAYLOAD", "criticality_score": 7.0, "last_updated": "2026-06-11T13:56:27.956741+00:00", "maneuver_count": 0}, "297": {"norad_id": "52898", "name": "RANDEV", "tle1": "1 52898U 22065E   26162.32630524  .00000775  00000-0  15823-3 0  9990", "tle2": "2 52898  98.2205 306.5957 0008957  49.8638 310.3347 14.63681563210391", "object_type": "PAYLOAD", "criticality_score": 7.0, "last_updated": "2026-06-11T13:56:27.956741+00:00", "maneuver_count": 0}, "298": {"norad_id": "52899", "name": "SNUGLITE-II", "tle1": "1 52899U 22065F   26162.15460763  .00000789  00000-0  15855-3 0  9998", "tle2": "2 52899  98.2195 306.9962 0008353  50.1819 310.0117 14.64336421210119", "object_type": "PAYLOAD", "criticality_score": 7.0, "last_updated": "2026-06-11T13:56:27.956741+00:00", "maneuver_count": 0}, "301": {"norad_id": "52900", "name": "MIMAN", "tle1": "1 52900U 22065G   26161.95646594  .00000470  00000-0  10359-3 0  9997", "tle2": "2 52900  98.2253 304.4705 0008565  52.4112 307.7866 14.61837510209531", "object_type": "PAYLOAD", "criticality_score": 7.0, "last_updated": "2026-06-11T13:56:27.956741+00:00", "maneuver_count": 0}, "308": {"norad_id": "53109", "name": "AVUM R/B", "tle1": "1 53109U 22080E   26152.46502029 -.00000003  00000-0  00000-0 0  9998", "tle2": "2 53109  70.1435 303.7143 0008869 293.3663  66.6064  6.42583280 91055", "object_type": "ROCKET_BODY", "criticality_score": 3.0, "last_updated": "2026-06-11T13:56:27.956741+00:00", "maneuver_count": 0}, "313": {"norad_id": "53105", "name": "LARES-2", "tle1": "1 53105U 22080A   26158.30850879 -.00000008  00000-0  00000-0 0  9997", "tle2": "2 53105  70.1642 308.7172 0005412 333.4127  26.6130  6.38965096 91032", "object_type": "PAYLOAD", "criticality_score": 7.0, "last_updated": "2026-06-11T13:56:27.956741+00:00", "maneuver_count": 0}, "314": {"norad_id": "52760", "name": "VIGORIDE 3", "tle1": "1 52760U 22057AE  26162.12341098  .00005305  00000-0  20159-3 0  9994", "tle2": "2 52760  97.6590 301.9378 0009295 139.1177 221.0760 15.27216399224239", "object_type": "PAYLOAD", "criticality_score": 7.0, "last_updated": "2026-06-11T13:56:27.956741+00:00", "maneuver_count": 0}, "325": {"norad_id": "52157", "name": "OMNI-L1", "tle1": "1 52157U 22033A   26162.17279133  .00001688  00000-0  21550-3 0  9999", "tle2": "2 52157  97.8394 241.4668 0004001 314.3027  45.7858 14.82726739226565", "object_type": "PAYLOAD", "criticality_score": 7.0, "last_updated": "2026-06-11T13:56:27.956741+00:00", "maneuver_count": 0}, "329": {"norad_id": "53204", "name": "STARLINK-4410", "tle1": "1 53204U 22084R   26162.12912460  .00037185  00000-0  13678-2 0  9993", "tle2": "2 53204  97.6014 223.0813 0003176 120.5488 239.6065 15.27776928214087", "object_type": "PAYLOAD", "criticality_score": 8.0, "last_updated": "2026-06-11T13:56:27.956741+00:00", "maneuver_count": 0}, "332": {"norad_id": "53043", "name": "STARLINK-4362", "tle1": "1 53043U 22077A   26162.21791745 -.00000163  00000-0 -73170-5 0  9991", "tle2": "2 53043  97.3762 341.4360 0002013  85.0660 275.0797 15.05649210214987", "object_type": "PAYLOAD", "criticality_score": 8.0, "last_updated": "2026-06-11T13:56:27.956741+00:00", "maneuver_count": 0}, "338": {"norad_id": "51827", "name": "OBJECT D", "tle1": "1 51827U 22019D   26162.26207594  .00063549  00000-0  52313-3 0  9993", "tle2": "2 51827  97.3665 254.4272 0005757 159.5705 200.5789 15.70184878238770", "object_type": "PAYLOAD", "criticality_score": 7.0, "last_updated": "2026-06-11T13:56:27.956741+00:00", "maneuver_count": 0}, "402": {"norad_id": "52085", "name": "CZ-4C R/B", "tle1": "1 52085U 22027B   26162.08386211 -.00000054  00000-0  42394-4 0  9995", "tle2": "2 52085  63.3942  75.1721 0232034  22.6438 338.4637 13.65479674211203", "object_type": "ROCKET_BODY", "criticality_score": 3.0, "last_updated": "2026-06-11T13:56:27.956741+00:00", "maneuver_count": 0}, "415": {"norad_id": "51284", "name": "LT-1 01A", "tle1": "1 51284U 22007A   26162.26517019  .00000491  00000-0  58824-4 0  9994", "tle2": "2 51284  97.8097 169.7693 0001605  91.1274 269.0127 14.88414486237590", "object_type": "PAYLOAD", "criticality_score": 7.0, "last_updated": "2026-06-11T13:56:27.956741+00:00", "maneuver_count": 0}, "426": {"norad_id": "52161", "name": "ARCSAT-1", "tle1": "1 52161U 22033E   26162.19971953  .00011335  00000-0  18013-3 0  9995", "tle2": "2 52161  97.2753 254.3844 0004336 202.1996 157.9070 15.53481792234772", "object_type": "PAYLOAD", "criticality_score": 7.0, "last_updated": "2026-06-11T13:56:27.956741+00:00", "maneuver_count": 0}, "430": {"norad_id": "51832", "name": "OBJECT J", "tle1": "1 51832U 22019J   26162.28335473  .00001908  00000-0  90594-4 0  9994", "tle2": "2 51832  97.3434 225.2462 0006960 245.8249 114.2259 15.20415298236900", "object_type": "PAYLOAD", "criticality_score": 7.0, "last_updated": "2026-06-11T13:56:27.956741+00:00", "maneuver_count": 0}, "439": {"norad_id": "52196", "name": "GLOBAL-18", "tle1": "1 52196U 22034B   26162.04953493  .00020215  00000-0  41509-3 0  9990", "tle2": "2 52196  52.9819 285.9677 0003097 245.8169 114.2512 15.46017617236013", "object_type": "PAYLOAD", "criticality_score": 7.0, "last_updated": "2026-06-11T13:56:27.956741+00:00", "maneuver_count": 0}, "441": {"norad_id": "53346", "name": "OBJECT A", "tle1": "1 53346U 22090A   26162.23953412  .00003014  00000-0  13750-3 0  9997", "tle2": "2 53346  97.3142 230.5164 0002822 196.0826 164.0321 15.21365407213902", "object_type": "PAYLOAD", "criticality_score": 7.0, "last_updated": "2026-06-11T13:56:27.956741+00:00", "maneuver_count": 0}, "456": {"norad_id": "52445", "name": "JILIN-01 GAOFEN 3D 28", "tle1": "1 52445U 22048C   26162.19219104  .00114930  00000-0  70967-3 0  9990", "tle2": "2 52445  97.5641 275.7170 0001193 154.4301 205.7023 15.76795137228580", "object_type": "PAYLOAD", "criticality_score": 7.0, "last_updated": "2026-06-11T13:56:27.956741+00:00", "maneuver_count": 0}, "457": {"norad_id": "52444", "name": "JILIN-01 GAOFEN 3D 27", "tle1": "1 52444U 22048B   26162.24526184  .00096347  00000-0  67351-3 0  9998", "tle2": "2 52444  97.5704 275.6482 0001592  77.4139 282.7302 15.73985296228545", "object_type": "PAYLOAD", "criticality_score": 7.0, "last_updated": "2026-06-11T13:56:27.956741+00:00", "maneuver_count": 0}, "483": {"norad_id": "52159", "name": "ENMAP", "tle1": "1 52159U 22033C   26162.26354959  .00000522  00000-0  85144-4 0  9997", "tle2": "2 52159  97.9788 244.5973 0001393  86.7806 273.3563 14.74983444225788", "object_type": "PAYLOAD", "criticality_score": 7.0, "last_updated": "2026-06-11T13:56:27.956741+00:00", "maneuver_count": 0}, "484": {"norad_id": "51951", "name": "OBJECT F", "tle1": "1 51951U 22023F   26159.71209286  .00015685  00000-0  62558-3 0  9992", "tle2": "2 51951  63.4454 302.2925 0129324 342.7663  16.9077 15.17938636236420", "object_type": "PAYLOAD", "criticality_score": 7.0, "last_updated": "2026-06-11T13:56:27.956741+00:00", "maneuver_count": 0}, "501": {"norad_id": "51822", "name": "LT-1 01B", "tle1": "1 51822U 22018A   26162.29876648  .00000531  00000-0  63122-4 0  9995", "tle2": "2 51822  97.8103 169.7985 0001589  90.9404 269.1995 14.88410869232830", "object_type": "PAYLOAD", "criticality_score": 7.0, "last_updated": "2026-06-11T13:56:27.956741+00:00", "maneuver_count": 0}, "513": {"norad_id": "52257", "name": "DAQI 1", "tle1": "1 52257U 22039A   26162.31070773  .00000570  00000-0  13474-3 0  9996", "tle2": "2 52257  98.1476 101.2840 0002321 283.5096  76.5844 14.57675361221087", "object_type": "PAYLOAD", "criticality_score": 7.0, "last_updated": "2026-06-11T13:56:27.956741+00:00", "maneuver_count": 0}, "569": {"norad_id": "53323", "name": "COSMOS 2558", "tle1": "1 53323U 22089A   26161.53671874  .00091569  00000-0  64540-3 0  9996", "tle2": "2 53323  97.2255 265.3368 0000727 208.2921 151.8304 15.73809208216780", "object_type": "PAYLOAD", "criticality_score": 7.0, "last_updated": "2026-06-11T13:56:27.956741+00:00", "maneuver_count": 0}, "577": {"norad_id": "52200", "name": "GAOFEN 3 03", "tle1": "1 52200U 22035A   26162.33253883  .00000263  00000-0  93082-4 0  9990", "tle2": "2 52200  98.4066 170.9980 0001177  99.2442 260.8881 14.42215161220008", "object_type": "PAYLOAD", "criticality_score": 7.0, "last_updated": "2026-06-11T13:56:27.956741+00:00", "maneuver_count": 0}, "662": {"norad_id": "52145", "name": "MERIDIAN 10", "tle1": "1 52145U 22030A   26161.98864150  .00000244  00000-0  00000-0 0  9991", "tle2": "2 52145  62.6774 141.4643 6781991 272.8584  17.6697  2.00614319 30905", "object_type": "PAYLOAD", "criticality_score": 7.0, "last_updated": "2026-06-11T13:56:27.956741+00:00", "maneuver_count": 0}}}