OBJECT_NAME,OBJECT_ID,EPOCH,MEAN_MOTION,ECCENTRICITY,INCLINATION,RA_OF_ASC_NODE,ARG_OF_PERICENTER,MEAN_ANOMALY,EPHEMERIS_TYPE,CLASSIFICATION_TYPE,NORAD_CAT_ID,ELEMENT_SET_NO,REV_AT_EPOCH,BSTAR,MEAN_MOTION_DOT,MEAN_MOTION_DDOT
LUDI TANCE 1-01A (L-SAR 01A),2022-007A,2026-06-11T06:21:50.704416,14.88414486,.00016052,97.8097,169.7693,91.1274,269.0127,0,U,51284,999,23759,.58823586E-4,.491E-5,0
LUDI TANCE 1-01B (L-SAR 01B),2022-018A,2026-06-11T07:10:13.423872,14.88410869,.00015891,97.8103,169.7985,90.9404,269.1995,0,U,51822,999,23283,.63121571E-4,.531E-5,0
2022-019D,2022-019D,2026-06-11T06:17:23.361216,15.70184878,.0005757,97.3665,254.4272,159.5705,200.5789,0,U,51827,999,23877,.52312641E-3,.63549E-3,0
2022-019J,2022-019J,2026-06-11T06:48:01.848672,15.20415298,.00069602,97.3434,225.2462,245.8249,114.2259,0,U,51832,999,23690,.9059418E-4,.1908E-4,0
2022-023F,2022-023F,2026-06-08T17:05:24.823104,15.17938636,.01293236,63.4454,302.2925,342.7663,16.9077,0,U,51951,999,23642,.62557508E-3,.15685E-3,0
CZ-4C R/B,2022-027B,2026-06-11T02:00:45.686304,13.65479674,.02320344,63.3942,75.1721,22.6438,338.4637,0,U,52085,999,21120,.42393628E-4,-.54E-6,0
MERIDIAN 10,2022-030A,2026-06-10T23:43:38.625600,2.00614319,.67819912,62.6774,141.4643,272.8584,17.6697,0,U,52145,999,3090,0,.244E-5,0
OMNI-L1,2022-033A,2026-06-11T04:08:49.170912,14.82726739,.00040008,97.8394,241.4668,314.3027,45.7858,0,U,52157,999,22656,.2154973E-3,.1688E-4,0
ENMAP,2022-033C,2026-06-11T06:19:30.684576,14.74983444,.00013928,97.9788,244.5973,86.7806,273.3563,0,U,52159,999,22578,.85143793E-4,.522E-5,0
ARCSAT-1,2022-033E,2026-06-11T04:47:35.767392,15.53481792,.00043361,97.2753,254.3844,202.1996,157.9070,0,U,52161,999,23477,.18012802E-3,.11335E-3,0
GLOBAL-18,2022-034B,2026-06-11T01:11:19.817952,15.46017617,.00030973,52.9819,285.9677,245.8169,114.2512,0,U,52196,999,23601,.41509154E-3,.20215E-3,0
GAOFEN-3 03,2022-035A,2026-06-11T07:58:51.354912,14.42215161,.00011773,98.4066,170.9980,99.2442,260.8881,0,U,52200,999,22000,.93081786E-4,.263E-5,0
DAQI-1,2022-039A,2026-06-11T07:27:25.147872,14.57675361,.00023209,98.1476,101.2840,283.5096,76.5844,0,U,52257,999,22108,.13474278E-3,.57E-5,0
BRO-6,2022-047AE,2026-06-11T04:47:36.931200,15.50140832,.0005511,97.3398,253.1417,98.4346,261.7531,0,U,52422,999,23022,.542885E-3,.30571E-3,0
JILIN-1 GAOFEN 3D27,2022-048B,2026-06-11T05:53:10.622976,15.73985296,.00015921,97.5704,275.6482,77.4139,282.7302,0,U,52444,999,22854,.67351224E-3,.96347E-3,0
JILIN-1 GAOFEN 3D28,2022-048C,2026-06-11T04:36:45.305856,15.76795137,.00011927,97.5641,275.7170,154.4301,205.7023,0,U,52445,999,22858,.70967392E-3,.11493E-2,0
VIGORIDE-3,2022-057AE,2026-06-11T02:57:42.708672,15.27216399,.00092945,97.6590,301.9378,139.1177,221.0760,0,U,52760,999,22423,.2015944E-3,.5305E-4,0
ION SCV-006,2022-057AF,2026-06-11T03:25:19.467552,15.45139104,.00182595,97.6086,310.4761,134.1240,226.1514,0,U,52761,999,22518,.23514647E-3,.11114E-3,0
SHERPA-AC1,2022-057AH,2026-06-11T03:20:50.905248,15.36180374,.00089246,97.6673,311.1149,111.6751,248.5443,0,U,52763,999,22477,.18156647E-3,.6321E-4,0
OMNI-L2,2022-057AR,2026-06-11T04:16:53.945760,14.81354549,.0006317,97.4717,224.9405,358.3758,1.7434,0,U,52771,999,21950,.1524214E-3,.1143E-4,0
STEP CUBE LAB-II,2022-065D,2026-06-11T06:07:37.907040,14.63293993,.00096464,98.2218,306.1756,49.3705,310.8335,0,U,52897,999,21063,.13303647E-3,.638E-5,0
RANDEV,2022-065E,2026-06-11T07:49:52.772736,14.63681563,.00089571,98.2205,306.5957,49.8638,310.3347,0,U,52898,999,21039,.15822771E-3,.775E-5,0
SNUGLITE-II,2022-065F,2026-06-11T03:42:38.099232,14.64336421,.00083533,98.2195,306.9962,50.1819,310.0117,0,U,52899,999,21011,.15855193E-3,.789E-5,0
MIMAN,2022-065G,2026-06-10T22:57:18.657216,14.61837510,.00085649,98.2253,304.4705,52.4112,307.7866,0,U,52900,999,20953,.1035933E-3,.47E-5,0
STARLINK-4362,2022-077A,2026-06-11T05:13:48.067680,15.05649210,.00020128,97.3762,341.4360,85.0660,275.0797,0,U,53043,999,21498,-.7316972E-5,-.163E-5,0
LARES-2,2022-080A,2026-06-07T07:24:15.159456,6.38965096,.0005412,70.1642,308.7172,333.4127,26.6130,0,U,53105,999,9103,0,-.8E-7,0
GREENCUBE (IO-117),2022-080E,2026-06-01T11:09:37.753056,6.42583280,.00088692,70.1435,303.7143,293.3663,66.6064,0,U,53109,999,9105,0,-.3E-7,0
STARLINK-4410,2022-084R,2026-06-11T03:05:56.365440,15.27776928,.00031762,97.6014,223.0813,120.5488,239.6065,0,U,53204,999,21408,.13678021E-2,.37185E-3,0
COSMOS 2558,2022-089A,2026-06-10T12:52:52.499136,15.73809208,.0000727,97.2255,265.3368,208.2921,151.8304,0,U,53323,999,21678,.6454E-3,.91569E-3,0
TECMS,2022-090A,2026-06-11T05:44:55.747968,15.21365407,.00028224,97.3142,230.5164,196.0826,164.0321,0,U,53346,999,21390,.13749722E-3,.3014E-4,0
